{
  "type": "FeatureCollection",
  "features": [
    {
      "type": "Feature",
      "properties": {
        "norad_id": 58647,
        "name": "TIANMU-1 13",
        "group": "weather",
        "lat": -17.893449506564547,
        "lon": -178.30738215321009,
        "alt_km": 496.76325287349846,
        "timestamp": "2025-12-10T09:57:44.348262+00:00",
        "meta_object_name": "TIANMU-1 13",
        "meta_object_id": "2023-205C",
        "meta_epoch": "2025-12-09T20:29:36.802752",
        "meta_mean_motion": 15.24468145,
        "meta_eccentricity": 0.0006048,
        "meta_inclination": 97.3624,
        "meta_ra_of_asc_node": 3.5338,
        "meta_arg_of_pericenter": 280.519,
        "meta_mean_anomaly": 79.5366,
        "meta_ephemeris_type": 0,
        "meta_classification_type": "U",
        "meta_norad_cat_id": 58647,
        "meta_element_set_no": 999,
        "meta_rev_at_epoch": 10863,
        "meta_bstar": 0.00040835,
        "meta_mean_motion_dot": 9.968e-05,
        "meta_mean_motion_ddot": 0,
        "tle_line1": "1 58647U 23205C   25343.85389818  .00009968  00000+0  40835-3 0  9993",
        "tle_line2": "2 58647  97.3624   3.5338 0006048 280.5190  79.5366 15.24468145108632"
      },
      "geometry": {
        "type": "Point",
        "coordinates": [
          -178.30738215321009,
          -17.893449506564547
        ]
      }
    },
    {
      "type": "Feature",
      "properties": {
        "norad_id": 58648,
        "name": "TIANMU-1 14",
        "group": "weather",
        "lat": -69.54517692310296,
        "lon": 23.699700768485204,
        "alt_km": 494.976991612818,
        "timestamp": "2025-12-10T09:57:44.348274+00:00",
        "meta_object_name": "TIANMU-1 14",
        "meta_object_id": "2023-205D",
        "meta_epoch": "2025-12-09T20:05:39.727104",
        "meta_mean_motion": 15.24451232,
        "meta_eccentricity": 0.0006905,
        "meta_inclination": 97.3556,
        "meta_ra_of_asc_node": 2.8689,
        "meta_arg_of_pericenter": 285.7521,
        "meta_mean_anomaly": 74.2955,
        "meta_ephemeris_type": 0,
        "meta_classification_type": "U",
        "meta_norad_cat_id": 58648,
        "meta_element_set_no": 999,
        "meta_rev_at_epoch": 10863,
        "meta_bstar": 0.00039513,
        "meta_mean_motion_dot": 9.639e-05,
        "meta_mean_motion_ddot": 0,
        "tle_line1": "1 58648U 23205D   25343.83726536  .00009639  00000+0  39513-3 0  9990",
        "tle_line2": "2 58648  97.3556   2.8689 0006905 285.7521  74.2955 15.24451232108630"
      },
      "geometry": {
        "type": "Point",
        "coordinates": [
          23.699700768485204,
          -69.54517692310296
        ]
      }
    },
    {
      "type": "Feature",
      "properties": {
        "norad_id": 58660,
        "name": "TIANMU-1 19",
        "group": "weather",
        "lat": 23.494037718595244,
        "lon": -81.2872333432001,
        "alt_km": 482.91340651031896,
        "timestamp": "2025-12-10T09:57:44.348310+00:00",
        "meta_object_name": "TIANMU-1 19",
        "meta_object_id": "2023-208A",
        "meta_epoch": "2025-12-09T17:33:40.404960",
        "meta_mean_motion": 15.27761661,
        "meta_eccentricity": 0.0004063,
        "meta_inclination": 97.4389,
        "meta_ra_of_asc_node": 94.775,
        "meta_arg_of_pericenter": 266.5058,
        "meta_mean_anomaly": 93.5716,
        "meta_ephemeris_type": 0,
        "meta_classification_type": "U",
        "meta_norad_cat_id": 58660,
        "meta_element_set_no": 999,
        "meta_rev_at_epoch": 10836,
        "meta_bstar": 0.00051751,
        "meta_mean_motion_dot": 0.00013974,
        "meta_mean_motion_ddot": 0,
        "tle_line1": "1 58660U 23208A   25343.73171765  .00013974  00000+0  51751-3 0  9999",
        "tle_line2": "2 58660  97.4389  94.7750 0004063 266.5058  93.5716 15.27761661108365"
      },
      "geometry": {
        "type": "Point",
        "coordinates": [
          -81.2872333432001,
          23.494037718595244
        ]
      }
    },
    {
      "type": "Feature",
      "properties": {
        "norad_id": 58661,
        "name": "TIANMU-1 20",
        "group": "weather",
        "lat": -40.151761254478586,
        "lon": -90.42084125518822,
        "alt_km": 483.02875003357076,
        "timestamp": "2025-12-10T09:57:44.348325+00:00",
        "meta_object_name": "TIANMU-1 20",
        "meta_object_id": "2023-208B",
        "meta_epoch": "2025-12-09T20:26:05.292096",
        "meta_mean_motion": 15.28957488,
        "meta_eccentricity": 0.0006309,
        "meta_inclination": 97.4327,
        "meta_ra_of_asc_node": 95.3393,
        "meta_arg_of_pericenter": 278.1223,
        "meta_mean_anomaly": 81.9301,
        "meta_ephemeris_type": 0,
        "meta_classification_type": "U",
        "meta_norad_cat_id": 58661,
        "meta_element_set_no": 999,
        "meta_rev_at_epoch": 10845,
        "meta_bstar": 0.00052034,
        "meta_mean_motion_dot": 0.0001458,
        "meta_mean_motion_ddot": 0,
        "tle_line1": "1 58661U 23208B   25343.85145014  .00014580  00000+0  52034-3 0  9990",
        "tle_line2": "2 58661  97.4327  95.3393 0006309 278.1223  81.9301 15.28957488108452"
      },
      "geometry": {
        "type": "Point",
        "coordinates": [
          -90.42084125518822,
          -40.151761254478586
        ]
      }
    },
    {
      "type": "Feature",
      "properties": {
        "norad_id": 58662,
        "name": "TIANMU-1 21",
        "group": "weather",
        "lat": -24.135185363141083,
        "lon": -85.55535262893437,
        "alt_km": 475.4205835566254,
        "timestamp": "2025-12-10T09:57:44.348339+00:00",
        "meta_object_name": "TIANMU-1 21",
        "meta_object_id": "2023-208C",
        "meta_epoch": "2025-12-09T18:57:33.729408",
        "meta_mean_motion": 15.31450051,
        "meta_eccentricity": 0.0005885,
        "meta_inclination": 97.4375,
        "meta_ra_of_asc_node": 97.1731,
        "meta_arg_of_pericenter": 272.6141,
        "meta_mean_anomaly": 87.4426,
        "meta_ephemeris_type": 0,
        "meta_classification_type": "U",
        "meta_norad_cat_id": 58662,
        "meta_element_set_no": 999,
        "meta_rev_at_epoch": 10854,
        "meta_bstar": 0.00052935,
        "meta_mean_motion_dot": 0.00016023,
        "meta_mean_motion_ddot": 0,
        "tle_line1": "1 58662U 23208C   25343.78997372  .00016023  00000+0  52935-3 0  9999",
        "tle_line2": "2 58662  97.4375  97.1731 0005885 272.6141  87.4426 15.31450051108545"
      },
      "geometry": {
        "type": "Point",
        "coordinates": [
          -85.55535262893437,
          -24.135185363141083
        ]
      }
    },
    {
      "type": "Feature",
      "properties": {
        "norad_id": 58663,
        "name": "TIANMU-1 22",
        "group": "weather",
        "lat": 20.260647249217765,
        "lon": -81.71883520793465,
        "alt_km": 484.7629954412678,
        "timestamp": "2025-12-10T09:57:44.348350+00:00",
        "meta_object_name": "TIANMU-1 22",
        "meta_object_id": "2023-208D",
        "meta_epoch": "2025-12-09T17:32:40.532352",
        "meta_mean_motion": 15.2752235,
        "meta_eccentricity": 0.0002784,
        "meta_inclination": 97.4383,
        "meta_ra_of_asc_node": 94.8347,
        "meta_arg_of_pericenter": 302.1206,
        "meta_mean_anomaly": 57.9763,
        "meta_ephemeris_type": 0,
        "meta_classification_type": "U",
        "meta_norad_cat_id": 58663,
        "meta_element_set_no": 999,
        "meta_rev_at_epoch": 10837,
        "meta_bstar": 0.00048664,
        "meta_mean_motion_dot": 0.00013038,
        "meta_mean_motion_ddot": 0,
        "tle_line1": "1 58663U 23208D   25343.73102468  .00013038  00000+0  48664-3 0  9996",
        "tle_line2": "2 58663  97.4383  94.8347 0002784 302.1206  57.9763 15.27522350108372"
      },
      "geometry": {
        "type": "Point",
        "coordinates": [
          -81.71883520793465,
          20.260647249217765
        ]
      }
    },
    {
      "type": "Feature",
      "properties": {
        "norad_id": 58700,
        "name": "TIANMU-1 15",
        "group": "weather",
        "lat": -46.303618555295294,
        "lon": 173.7787454575911,
        "alt_km": 495.08239153089835,
        "timestamp": "2025-12-10T09:57:44.348360+00:00",
        "meta_object_name": "TIANMU-1 15",
        "meta_object_id": "2024-004A",
        "meta_epoch": "2025-12-09T19:59:26.314944",
        "meta_mean_motion": 15.24619618,
        "meta_eccentricity": 0.0005313,
        "meta_inclination": 97.4631,
        "meta_ra_of_asc_node": 165.3133,
        "meta_arg_of_pericenter": 310.9146,
        "meta_mean_anomaly": 49.1631,
        "meta_ephemeris_type": 0,
        "meta_classification_type": "U",
        "meta_norad_cat_id": 58700,
        "meta_element_set_no": 999,
        "meta_rev_at_epoch": 10690,
        "meta_bstar": 0.00043374,
        "meta_mean_motion_dot": 0.00010639,
        "meta_mean_motion_ddot": 0,
        "tle_line1": "1 58700U 24004A   25343.83294346  .00010639  00000+0  43374-3 0  9998",
        "tle_line2": "2 58700  97.4631 165.3133 0005313 310.9146  49.1631 15.24619618106903"
      },
      "geometry": {
        "type": "Point",
        "coordinates": [
          173.7787454575911,
          -46.303618555295294
        ]
      }
    }
  ]
}